NORAD_CAT_ID,OBJECT_NAME,OBJECT_TYPE,EPOCH,MEAN_MOTION,ECCENTRICITY,INCLINATION,RA_OF_ASC_NODE,ARG_OF_PERICENTER,MEAN_ANOMALY,BSTAR,MEAN_MOTION_DOT,MEAN_MOTION_DDOT,TLE_LINE0,TLE_LINE1,TLE_LINE2,SEMIMAJOR_AXIS,PERIOD,APOGEE,PERIGEE,DECAYED
51779.0,STARLINK-3611,PAYLOAD,2023-03-09 17:05:15,15.08846747,0.0001838,53.2148,219.1572,86.9553,273.1649,0.0004192,6.391e-05,0.0,0 STARLINK-3611,1 51779U 22017M   23068.71198113  .00006391  00000-0  41920-3 0  9999,2 51779  53.2148 219.1572 0001838  86.9553 273.1649 15.08846747 57113,6917.86,95.437,540.996,538.453,0.0
51779.0,STARLINK-3611,PAYLOAD,2023-03-10 18:31:25,15.08848577,0.0001553,53.2177,214.3988,81.5375,278.5793,0.00025114,3.712e-05,0.0,0 STARLINK-3611,1 51779U 22017M   23069.77182006  .00003712  00000-0  25114-3 0  9991,2 51779  53.2177 214.3988 0001553  81.5375 278.5793 15.08848577 58764,6917.854,95.437,540.794,538.645,0.0
51779.0,STARLINK-3611,PAYLOAD,2023-03-11 02:28:21,15.08818924,0.0001263,53.2182,212.9115,104.2533,255.86,-0.00050626,-8.331e-05,0.0,0 STARLINK-3611,1 51779U 22017M   23070.10302718 -.00008331  00000-0 -50626-3 0  9994,2 51779  53.2182 212.9115 0001263 104.2533 255.8600 15.08818924 58817,6917.945,95.439,540.684,538.936,0.0
51779.0,STARLINK-3611,PAYLOAD,2023-03-11 08:49:53,15.08839374,0.0002296,53.2138,211.7216,93.216,266.9095,9.6389e-05,1.246e-05,0.0,0 STARLINK-3611,1 51779U 22017M   23070.36798432  .00001246  00000-0  96389-4 0  9997,2 51779  53.2138 211.7216 0002296  93.2160 266.9095 15.08839374 58854,6917.882,95.438,541.336,538.159,0.0
51779.0,STARLINK-3611,PAYLOAD,2023-03-11 12:00:40,15.08838794,0.000185,53.2115,211.1266,95.8471,264.2732,-2.3553e-05,-6.63e-06,0.0,0 STARLINK-3611,1 51779U 22017M   23070.50046456 -.00000663  00000-0 -23553-4 0  9992,2 51779  53.2115 211.1266 0001850  95.8471 264.2732 15.08838794 57387,6917.884,95.438,541.029,538.469,0.0
51779.0,STARLINK-3611,PAYLOAD,2023-03-11 19:57:35,15.08854095,0.0001642,53.2156,209.6405,96.3207,263.7972,0.00029509,4.413e-05,0.0,0 STARLINK-3611,1 51779U 22017M   23070.83165800  .00004413  00000-0  29509-3 0  9994,2 51779  53.2156 209.6405 0001642  96.3207 263.7972 15.08854095 57439,6917.837,95.437,540.838,538.566,0.0
51779.0,STARLINK-3611,PAYLOAD,2023-03-12 08:40:41,15.08819351,0.0001469,53.215,207.2632,87.2372,272.8788,-0.00010701,-1.99e-05,0.0,0 STARLINK-3611,1 51779U 22017M   23071.36159507 -.00001990  00000-0 -10701-3 0  9993,2 51779  53.2150 207.2632 0001469  87.2372 272.8788 15.08819351 59005,6917.944,95.439,540.825,538.792,0.0
51779.0,STARLINK-3611,PAYLOAD,2023-03-12 11:51:28,15.0882066,0.0001231,53.2151,206.668,90.0628,270.0505,-7.8185e-05,-1.531e-05,0.0,0 STARLINK-3611,1 51779U 22017M   23071.49407513 -.00001531  00000-0 -78185-4 0  9992,2 51779  53.2151 206.6680 0001231  90.0628 270.0505 15.08820660 57533,6917.94,95.439,540.656,538.953,0.0
51779.0,STARLINK-3611,PAYLOAD,2023-03-12 18:13:00,15.08841238,0.00015,53.2147,205.4781,90.7324,269.384,0.00031469,4.724e-05,0.0,0 STARLINK-3611,1 51779U 22017M   23071.75902971  .00004724  00000-0  31469-3 0  9997,2 51779  53.2147 205.4781 0001500  90.7324 269.3840 15.08841238 59063,6917.877,95.437,540.779,538.704,0.0
51779.0,STARLINK-3611,PAYLOAD,2023-03-12 21:23:45,15.08852171,9.63e-05,53.2152,204.8811,102.7388,257.3712,0.00049766,7.644e-05,0.0,0 STARLINK-3611,1 51779U 22017M   23071.89150432  .00007644  00000-0  49766-3 0  9992,2 51779  53.2152 204.8811 0000963 102.7388 257.3712 15.08852171 57591,6917.843,95.437,540.374,539.042,0.0
51779.0,STARLINK-3611,PAYLOAD,2023-03-13 11:42:15,15.08823972,0.0001049,53.2154,202.2081,67.7479,292.3624,-3.6942e-06,-3.46e-06,0.0,0 STARLINK-3611,1 51779U 22017M   23072.48768052 -.00000346  00000-0 -36942-5 0  9999,2 51779  53.2154 202.2081 0001049  67.7479 292.3624 15.08823972 59175,6917.929,95.439,540.52,539.069,0.0
51779.0,STARLINK-3611,PAYLOAD,2023-03-14 03:36:06,15.08845069,9.21e-05,53.2156,199.2334,64.3087,295.8,0.00034423,5.196e-05,0.0,0 STARLINK-3611,1 51779U 22017M   23073.15007551  .00005196  00000-0  34423-3 0  9990,2 51779  53.2156 199.2334 0000921  64.3087 295.8000 15.08845069 59277,6917.865,95.437,540.367,539.093,0.0
51779.0,STARLINK-3611,PAYLOAD,2023-03-14 14:43:47,15.08864359,0.0001315,53.215,197.1482,99.5087,260.6054,0.00069668,0.00010824,0.0,0 STARLINK-3611,1 51779U 22017M   23073.61374625  .00010824  00000-0  69668-3 0  9993,2 51779  53.2150 197.1482 0001315  99.5087 260.6054 15.08864359 59340,6917.806,95.436,540.581,538.761,0.0
51779.0,STARLINK-3611,PAYLOAD,2023-03-15 12:59:10,15.08870206,0.0001651,53.2151,192.9902,82.881,277.237,0.00050322,7.736e-05,0.0,0 STARLINK-3611,1 51779U 22017M   23074.54109804  .00007736  00000-0  50322-3 0  9996,2 51779  53.2151 192.9902 0001651  82.8810 277.2370 15.08870206 59481,6917.788,95.436,540.795,538.511,0.0
51779.0,STARLINK-3611,PAYLOAD,2023-03-16 11:14:35,15.08835173,0.0001391,53.2146,188.8254,108.2941,251.8202,-0.00018492,-3.229e-05,0.0,0 STARLINK-3611,1 51779U 22017M   23075.46846392 -.00003229  00000-0 -18492-3 0  9995,2 51779  53.2146 188.8254 0001391 108.2941 251.8202 15.08835173 59620,6917.895,95.438,540.722,538.798,0.0
51779.0,STARLINK-3611,PAYLOAD,2023-03-16 12:49:58,15.08835719,0.0001837,53.2142,188.5259,119.0679,241.0497,-0.00020623,-3.568e-05,0.0,0 STARLINK-3611,1 51779U 22017M   23075.53470344 -.00003568  00000-0 -20623-3 0  9998,2 51779  53.2142 188.5259 0001837 119.0679 241.0497 15.08835719 58140,6917.893,95.438,541.029,538.488,0.0
51779.0,STARLINK-3611,PAYLOAD,2023-03-16 19:11:30,15.0883889,0.0001179,53.2148,187.3367,106.3647,253.7474,2.143e-05,5.3e-07,0.0,0 STARLINK-3611,1 51779U 22017M   23075.79966319  .00000053  00000-0  21430-4 0  9990,2 51779  53.2148 187.3367 0001179 106.3647 253.7474 15.08838890 58188,6917.884,95.438,540.564,538.933,0.0
51779.0,STARLINK-3611,PAYLOAD,2023-03-17 07:54:37,15.08813567,9.41e-05,53.215,184.9608,100.9505,259.1593,-0.00027453,-4.651e-05,0.0,0 STARLINK-3611,1 51779U 22017M   23076.32960068 -.00004651  00000-0 -27453-3 0  9995,2 51779  53.2150 184.9608 0000941 100.9505 259.1593 15.08813567 59751,6917.961,95.439,540.477,539.175,0.0
51779.0,STARLINK-3611,PAYLOAD,2023-03-17 14:16:10,15.08821255,0.0001039,53.215,183.7722,101.2481,258.8628,5.6317e-05,6.08e-06,0.0,0 STARLINK-3611,1 51779U 22017M   23076.59456329  .00000608  00000-0  56317-4 0  9992,2 51779  53.2150 183.7722 0001039 101.2481 258.8628 15.08821255 58309,6917.938,95.439,540.521,539.084,0.0
51779.0,STARLINK-3611,PAYLOAD,2023-03-17 23:48:29,15.08835666,0.0001149,53.2149,181.9873,116.2876,243.8234,0.0004915,7.542e-05,0.0,0 STARLINK-3611,1 51779U 22017M   23076.99200328  .00007542  00000-0  49150-3 0  9992,2 51779  53.2149 181.9873 0001149 116.2876 243.8234 15.08835666 59859,6917.894,95.438,540.554,538.964,0.0
51779.0,STARLINK-3611,PAYLOAD,2023-03-18 14:06:56,15.08878396,0.0001118,53.2152,179.3103,107.9027,252.2087,0.0014298,0.00022564,0.0,0 STARLINK-3611,1 51779U 22017M   23077.58815461  .00022564  00000-0  14298-2 0  9993,2 51779  53.2152 179.3103 0001118 107.9027 252.2087 15.08878396 59948,6917.763,95.435,540.401,538.855,0.0
51779.0,STARLINK-3611,PAYLOAD,2023-03-18 18:53:05,15.08901645,0.0001057,53.2145,178.4175,102.0654,258.0457,0.0019864,0.00031521,0.0,0 STARLINK-3611,1 51779U 22017M   23077.78686648  .00031521  00000-0  19864-2 0  9995,2 51779  53.2145 178.4175 0001057 102.0654 258.0457 15.08901645 59975,6917.692,95.434,540.288,538.826,0.0
51779.0,STARLINK-3611,PAYLOAD,2023-03-19 06:00:47,15.08851457,0.0001215,53.2145,176.3363,91.4327,268.6804,7.3981e-05,8.9e-06,0.0,0 STARLINK-3611,1 51779U 22017M   23078.25055024  .00000890  00000-0  73981-4 0  9993,2 51779  53.2145 176.3363 0001215  91.4327 268.6804 15.08851457 60043,6917.845,95.437,540.551,538.87,0.0
51779.0,STARLINK-3611,PAYLOAD,2023-03-19 13:57:43,15.08859459,0.0001183,53.2147,174.8498,87.2068,272.9059,0.0017075,0.00027006,0.0,0 STARLINK-3611,1 51779U 22017M   23078.58174951  .00027006  00000-0  17075-2 0  9998,2 51779  53.2147 174.8498 0001183  87.2068 272.9059 15.08859459 58605,6917.821,95.436,540.504,538.868,0.0
51779.0,STARLINK-3611,PAYLOAD,2023-03-19 17:08:29,15.08868016,0.0001184,53.2146,174.2549,86.1641,273.9486,0.0021838,0.00034665,0.0,0 STARLINK-3611,1 51779U 22017M   23078.71422774  .00034665  00000-0  21838-2 0  9993,2 51779  53.2146 174.2549 0001184  86.1641 273.9486 15.08868016 60114,6917.795,95.436,540.479,538.841,0.0
51779.0,STARLINK-3611,PAYLOAD,2023-03-20 05:51:34,15.08853941,0.000154,53.2148,171.877,97.3459,262.7708,0.0011237,0.00017648,0.0,0 STARLINK-3611,1 51779U 22017M   23079.24414952  .00017648  00000-0  11237-2 0  9995,2 51779  53.2148 171.8770 0001540  97.3459 262.7708 15.08853941 60194,6917.838,95.437,540.768,538.637,0.0
51779.0,STARLINK-3611,PAYLOAD,2023-03-20 12:13:07,15.08852838,0.0001541,53.2147,170.6868,104.6155,255.5008,0.001174,0.00018452,0.0,0 STARLINK-3611,1 51779U 22017M   23079.50910914  .00018452  00000-0  11740-2 0  9996,2 51779  53.2147 170.6868 0001541 104.6155 255.5008 15.08852838 58749,6917.841,95.437,540.772,538.64,0.0
51779.0,STARLINK-3611,PAYLOAD,2023-03-20 15:23:53,15.08861762,0.0001294,53.2145,170.0921,97.8438,262.2701,0.0016848,0.00026643,0.0,0 STARLINK-3611,1 51779U 22017M   23079.64158689  .00026643  00000-0  16848-2 0  9999,2 51779  53.2145 170.0921 0001294  97.8438 262.2701 15.08861762 58766,6917.814,95.436,540.574,538.784,0.0
51779.0,STARLINK-3611,PAYLOAD,2023-03-20 23:20:48,15.08850059,0.0001162,53.215,168.604,120.454,239.6567,0.00084715,0.00013224,0.0,0 STARLINK-3611,1 51779U 22017M   23079.97278734  .00013224  00000-0  84715-3 0  9999,2 51779  53.2150 168.6040 0001162 120.4540 239.6567 15.08850059 60306,6917.85,95.437,540.518,538.911,0.0
51779.0,STARLINK-3611,PAYLOAD,2023-03-21 12:03:54,15.08850784,0.0001326,53.2149,166.2261,113.7561,246.3571,0.0015459,0.00024408,0.0,0 STARLINK-3611,1 51779U 22017M   23080.50270899  .00024408  00000-0  15459-2 0  9998,2 51779  53.2149 166.2261 0001326 113.7561 246.3571 15.08850784 58899,6917.847,95.437,540.63,538.795,0.0
